STARLINK-32238          
1 61661U 24193A   26068.49174349  .00000324  00000+0  23050-4 0  9994
2 61661  53.1598  92.1191 0001034  83.4153 276.6966 15.30192435 76499
COSMOS 2588             
1 64095U 25109A   26068.81179522  .00009169  00000+0  32611-3 0  9998
2 64095  72.9704  73.5401 0005019 308.6780  51.3966 15.29122656 44425
